start=new Date('2022-01-21T00:00:00.000Z').valueOf();
sats=[{"MEAN_ELEMENT_THEORY":"SGP4","TLE_LINE2":"2 48105  53.0574  37.0083 0001384  70.2547 289.8591 15.06392694 45912","CLASSIFICATION_TYPE":"U","PERIAPSIS":"546.277","INCLINATION":"53.0574","SITE":"AFETR","MEAN_MOTION":"15.06392694","TLE_LINE1":"1 48105U 21027P   22020.41464009  .00003205  00000-0  23398-3 0  9992","MEAN_MOTION_DOT":"0.00003205","BSTAR":"0.00023398000000","GP_ID":"194260616","ARG_OF_PERICENTER":"70.2547","RCS_SIZE":"LARGE","LAUNCH_DATE":"2021-04-07","CENTER_NAME":"EARTH","OBJECT_TYPE":"PAYLOAD","RA_OF_ASC_NODE":"37.0083","FILE":"3278533","REV_AT_EPOCH":"4591","SEMIMAJOR_AXIS":"6925.371","COUNTRY_CODE":"US","TIME_SYSTEM":"UTC","PERIOD":"95.593","MEAN_MOTION_DDOT":"0.0000000000000","OBJECT_ID":"2021-027P","ELEMENT_SET_NO":"999","REF_FRAME":"TEME","MEAN_ANOMALY":"289.8591","OBJECT_NAME":"STARLINK-2440","EPHEMERIS_TYPE":"0","APOAPSIS":"548.194","ECCENTRICITY":"0.00013840","NORAD_CAT_ID":"48105","EPOCH":"2022-01-20T09:57:04.903776","DECAY_DATE":null},{"OBJECT_NAME":"STARLINK-2442","EPHEMERIS_TYPE":"0","REF_FRAME":"TEME","MEAN_ANOMALY":"269.4575","MEAN_MOTION_DDOT":"0.0000000000000","OBJECT_ID":"2021-027Q","ELEMENT_SET_NO":"999","ECCENTRICITY":"0.00012740","NORAD_CAT_ID":"48106","EPOCH":"2022-01-20T11:08:41.009856","DECAY_DATE":null,"APOAPSIS":"548.115","GP_ID":"194260868","BSTAR":"0.00010254000000","MEAN_MOTION_DOT":"0.00001246","MEAN_MOTION":"15.06393910","TLE_LINE1":"1 48106U 21027Q   22020.46436354  .00001246  00000-0  10254-3 0  9990","CLASSIFICATION_TYPE":"U","TLE_LINE2":"2 48106  53.0555  86.7886 0001274  90.6560 269.4575 15.06393910 45225","MEAN_ELEMENT_THEORY":"SGP4","PERIAPSIS":"546.350","INCLINATION":"53.0555","SITE":"AFETR","TIME_SYSTEM":"UTC","PERIOD":"95.593","SEMIMAJOR_AXIS":"6925.367","COUNTRY_CODE":"US","OBJECT_TYPE":"PAYLOAD","RA_OF_ASC_NODE":"86.7886","FILE":"3278533","REV_AT_EPOCH":"4522","ARG_OF_PERICENTER":"90.6560","RCS_SIZE":"LARGE","LAUNCH_DATE":"2021-04-07","CENTER_NAME":"EARTH"},{"OBJECT_ID":"2021-027R","MEAN_MOTION_DDOT":"0.0000000000000","ELEMENT_SET_NO":"999","MEAN_ANOMALY":"271.3102","REF_FRAME":"TEME","OBJECT_NAME":"STARLINK-2443","EPHEMERIS_TYPE":"0","APOAPSIS":"548.131","NORAD_CAT_ID":"48107","ECCENTRICITY":"0.00013720","DECAY_DATE":null,"EPOCH":"2022-01-20T13:06:49.612320","MEAN_ELEMENT_THEORY":"SGP4","TLE_LINE2":"2 48107  53.0544  86.4182 0001372  88.8044 271.3102 15.06410800 45232","CLASSIFICATION_TYPE":"U","SITE":"AFETR","INCLINATION":"53.0544","PERIAPSIS":"546.230","MEAN_MOTION":"15.06410800","TLE_LINE1":"1 48107U 21027R   22020.54640755  .00006532  00000-0  45686-3 0  9992","MEAN_MOTION_DOT":"0.00006532","BSTAR":"0.00045686000000","GP_ID":"194260116","LAUNCH_DATE":"2021-04-07","RCS_SIZE":"LARGE","ARG_OF_PERICENTER":"88.8044","CENTER_NAME":"EARTH","RA_OF_ASC_NODE":"86.4182","OBJECT_TYPE":"PAYLOAD","REV_AT_EPOCH":"4523","FILE":"3278533","SEMIMAJOR_AXIS":"6925.315","COUNTRY_CODE":"US","PERIOD":"95.591","TIME_SYSTEM":"UTC"},{"APOAPSIS":"548.363","ECCENTRICITY":"0.00016170","NORAD_CAT_ID":"48108","EPOCH":"2022-01-20T17:14:57.503904","DECAY_DATE":null,"OBJECT_NAME":"STARLINK-2444","EPHEMERIS_TYPE":"0","MEAN_MOTION_DDOT":"0.0000000000000","OBJECT_ID":"2021-027S","ELEMENT_SET_NO":"999","REF_FRAME":"TEME","MEAN_ANOMALY":"290.8277","SEMIMAJOR_AXIS":"6925.379","COUNTRY_CODE":"US","TIME_SYSTEM":"UTC","PERIOD":"95.593","ARG_OF_PERICENTER":"69.2885","RCS_SIZE":"LARGE","LAUNCH_DATE":"2021-04-07","CENTER_NAME":"EARTH","OBJECT_TYPE":"PAYLOAD","RA_OF_ASC_NODE":"95.6593","FILE":"3278611","REV_AT_EPOCH":"4472","MEAN_MOTION_DOT":"0.00001673","BSTAR":"0.00013122000000","GP_ID":"194266281","CLASSIFICATION_TYPE":"U","TLE_LINE2":"2 48108  53.0554  95.6593 0001617  69.2885 290.8277 15.06390226 44721","MEAN_ELEMENT_THEORY":"SGP4","PERIAPSIS":"546.124","SITE":"AFETR","INCLINATION":"53.0554","MEAN_MOTION":"15.06390226","TLE_LINE1":"1 48108U 21027S   22020.71872111  .00001673  00000-0  13122-3 0  9996"},{"SEMIMAJOR_AXIS":"6925.385","COUNTRY_CODE":"US","PERIOD":"95.593","TIME_SYSTEM":"UTC","LAUNCH_DATE":"2021-04-07","RCS_SIZE":"LARGE","ARG_OF_PERICENTER":"87.0927","CENTER_NAME":"EARTH","RA_OF_ASC_NODE":"106.4796","OBJECT_TYPE":"PAYLOAD","REV_AT_EPOCH":"4495","FILE":"3278533","MEAN_MOTION_DOT":"0.00002602","GP_ID":"194261117","BSTAR":"0.00019359000000","CLASSIFICATION_TYPE":"U","TLE_LINE2":"2 48109  53.0561 106.4796 0001123  87.0927 273.0191 15.06388199 44952","MEAN_ELEMENT_THEORY":"SGP4","SITE":"AFETR","INCLINATION":"53.0561","PERIAPSIS":"546.472","MEAN_MOTION":"15.06388199","TLE_LINE1":"1 48109U 21027T   22020.53350824  .00002602  00000-0  19359-3 0  9990","APOAPSIS":"548.027","NORAD_CAT_ID":"48109","ECCENTRICITY":"0.00011230","DECAY_DATE":null,"EPOCH":"2022-01-20T12:48:15.111936","OBJECT_NAME":"STARLINK-2445","EPHEMERIS_TYPE":"0","OBJECT_ID":"2021-027T","MEAN_MOTION_DDOT":"0.0000000000000","ELEMENT_SET_NO":"999","MEAN_ANOMALY":"273.0191","REF_FRAME":"TEME"},{"FILE":"3278533","REV_AT_EPOCH":"4509","RA_OF_ASC_NODE":"96.5938","OBJECT_TYPE":"PAYLOAD","CENTER_NAME":"EARTH","RCS_SIZE":"LARGE","ARG_OF_PERICENTER":"95.2749","LAUNCH_DATE":"2021-04-07","TIME_SYSTEM":"UTC","PERIOD":"95.592","COUNTRY_CODE":"US","SEMIMAJOR_AXIS":"6925.363","TLE_LINE1":"1 48110U 21027U   22020.50861679  .00001836  00000-0  14211-3 0  9994","MEAN_MOTION":"15.06395137","PERIAPSIS":"546.343","INCLINATION":"53.0562","SITE":"AFETR","TLE_LINE2":"2 48110  53.0562  96.5938 0001279  95.2749 264.8386 15.06395137 45097","MEAN_ELEMENT_THEORY":"SGP4","CLASSIFICATION_TYPE":"U","BSTAR":"0.00014211000000","GP_ID":"194261369","MEAN_MOTION_DOT":"0.00001836","EPOCH":"2022-01-20T12:12:24.490656","DECAY_DATE":null,"ECCENTRICITY":"0.00012790","NORAD_CAT_ID":"48110","APOAPSIS":"548.114","REF_FRAME":"TEME","MEAN_ANOMALY":"264.8386","ELEMENT_SET_NO":"999","MEAN_MOTION_DDOT":"0.0000000000000","OBJECT_ID":"2021-027U","EPHEMERIS_TYPE":"0","OBJECT_NAME":"STARLINK-2447"},{"EPHEMERIS_TYPE":"0","OBJECT_NAME":"STARLINK-2448","REF_FRAME":"TEME","MEAN_ANOMALY":"267.1613","ELEMENT_SET_NO":"999","MEAN_MOTION_DDOT":"0.0000000000000","OBJECT_ID":"2021-027V","EPOCH":"2022-01-20T13:41:17.431296","DECAY_DATE":null,"ECCENTRICITY":"0.00009400","NORAD_CAT_ID":"48111","APOAPSIS":"547.861","GP_ID":"194259616","BSTAR":"0.00024251000000","MEAN_MOTION_DOT":"0.00003333","TLE_LINE1":"1 48111U 21027V   22020.57034064  .00003333  00000-0  24251-3 0  9991","MEAN_MOTION":"15.06401263","PERIAPSIS":"546.559","SITE":"AFETR","INCLINATION":"53.0541","TLE_LINE2":"2 48111  53.0541  96.3233 0000940  92.9484 267.1613 15.06401263 45104","CLASSIFICATION_TYPE":"U","MEAN_ELEMENT_THEORY":"SGP4","TIME_SYSTEM":"UTC","PERIOD":"95.592","COUNTRY_CODE":"US","SEMIMAJOR_AXIS":"6925.345","FILE":"3278533","REV_AT_EPOCH":"4510","OBJECT_TYPE":"PAYLOAD","RA_OF_ASC_NODE":"96.3233","CENTER_NAME":"EARTH","ARG_OF_PERICENTER":"92.9484","RCS_SIZE":"LARGE","LAUNCH_DATE":"2021-04-07"},{"OBJECT_NAME":"STARLINK-2449","EPHEMERIS_TYPE":"0","MEAN_MOTION_DDOT":"0.0000000000000","OBJECT_ID":"2021-027W","ELEMENT_SET_NO":"999","REF_FRAME":"TEME","MEAN_ANOMALY":"265.4019","APOAPSIS":"548.191","ECCENTRICITY":"0.00014370","NORAD_CAT_ID":"48112","EPOCH":"2022-01-20T13:04:47.146368","DECAY_DATE":null,"MEAN_MOTION_DOT":"0.00002131","BSTAR":"0.00016188000000","GP_ID":"194259862","TLE_LINE2":"2 48112  53.0532 111.4362 0001437  94.7134 265.4019 15.06405676 44888","MEAN_ELEMENT_THEORY":"SGP4","CLASSIFICATION_TYPE":"U","PERIAPSIS":"546.201","INCLINATION":"53.0532","SITE":"AFETR","MEAN_MOTION":"15.06405676","TLE_LINE1":"1 48112U 21027W   22020.54499012  .00002131  00000-0  16188-3 0  9992","SEMIMAJOR_AXIS":"6925.331","COUNTRY_CODE":"US","TIME_SYSTEM":"UTC","PERIOD":"95.592","RCS_SIZE":"LARGE","ARG_OF_PERICENTER":"94.7134","LAUNCH_DATE":"2021-04-07","CENTER_NAME":"EARTH","RA_OF_ASC_NODE":"111.4362","OBJECT_TYPE":"PAYLOAD","FILE":"3278533","REV_AT_EPOCH":"4488"},{"COUNTRY_CODE":"US","SEMIMAJOR_AXIS":"6925.316","PERIOD":"95.591","TIME_SYSTEM":"UTC","CENTER_NAME":"EARTH","LAUNCH_DATE":"2021-04-07","ARG_OF_PERICENTER":"82.0389","RCS_SIZE":"LARGE","REV_AT_EPOCH":"4493","FILE":"3278533","RA_OF_ASC_NODE":"106.6558","OBJECT_TYPE":"PAYLOAD","MEAN_MOTION_DOT":"0.00006398","BSTAR":"0.00044791000000","GP_ID":"194260617","INCLINATION":"53.0548","SITE":"AFETR","PERIAPSIS":"546.267","TLE_LINE2":"2 48113  53.0548 106.6558 0001320  82.0389 278.0750 15.06410673 44933","CLASSIFICATION_TYPE":"U","MEAN_ELEMENT_THEORY":"SGP4","TLE_LINE1":"1 48113U 21027X   22020.49664426  .00006398  00000-0  44791-3 0  9990","MEAN_MOTION":"15.06410673","APOAPSIS":"548.095","DECAY_DATE":null,"EPOCH":"2022-01-20T11:55:10.064064","NORAD_CAT_ID":"48113","ECCENTRICITY":"0.00013200","EPHEMERIS_TYPE":"0","OBJECT_NAME":"STARLINK-2450","ELEMENT_SET_NO":"999","OBJECT_ID":"2021-027X","MEAN_MOTION_DDOT":"0.0000000000000","MEAN_ANOMALY":"278.0750","REF_FRAME":"TEME"},{"GP_ID":"194260869","BSTAR":"0.00026153000000","MEAN_MOTION_DOT":"0.00003617","MEAN_MOTION":"15.06408550","TLE_LINE1":"1 48114U 21027Y   22020.52380515  .00003617  00000-0  26153-3 0  9992","CLASSIFICATION_TYPE":"U","TLE_LINE2":"2 48114  53.0536 101.5422 0001353  85.7332 274.3811 15.06408550 45028","MEAN_ELEMENT_THEORY":"SGP4","INCLINATION":"53.0536","SITE":"AFETR","PERIAPSIS":"546.250","PERIOD":"95.592","TIME_SYSTEM":"UTC","SEMIMAJOR_AXIS":"6925.322","COUNTRY_CODE":"US","OBJECT_TYPE":"PAYLOAD","RA_OF_ASC_NODE":"101.5422","REV_AT_EPOCH":"4502","FILE":"3278533","LAUNCH_DATE":"2021-04-07","ARG_OF_PERICENTER":"85.7332","RCS_SIZE":"LARGE","CENTER_NAME":"EARTH","OBJECT_NAME":"STARLINK-2451","EPHEMERIS_TYPE":"0","MEAN_ANOMALY":"274.3811","REF_FRAME":"TEME","OBJECT_ID":"2021-027Y","MEAN_MOTION_DDOT":"0.0000000000000","ELEMENT_SET_NO":"999","NORAD_CAT_ID":"48114","ECCENTRICITY":"0.00013530","DECAY_DATE":null,"EPOCH":"2022-01-20T12:34:16.764960","APOAPSIS":"548.124"}];
